{"type": "FeatureCollection", "features": [ {"type": "Feature", "properties": {"norad_id": 66925, "name": "STARLINK-35945", "group": "last-30-days", "lat": 14.953300348870693, "lon": -148.84371607997426, "alt_km": 290.73503542699746, "timestamp": "2025-12-14T07:33:18.189586+00:00", "meta": {"OBJECT_NAME": "STARLINK-35945", "OBJECT_ID": "2025-286A", "EPOCH": "2025-12-13T14:00:03.000384", "MEAN_MOTION": 15.95361591, "ECCENTRICITY": 8.226e-05, "INCLINATION": 53.1574, "RA_OF_ASC_NODE": 46.4495, "ARG_OF_PERICENTER": 63.9528, "MEAN_ANOMALY": 216.0435, "EPHEMERIS_TYPE": 0, "CLASSIFICATION_TYPE": "U", "NORAD_CAT_ID": 66925, "ELEMENT_SET_NO": 999, "REV_AT_EPOCH": 212, "BSTAR": -0.0028918308, "MEAN_MOTION_DOT": -0.01173135, "MEAN_MOTION_DDOT": 0.00042268332}, "tle": {"line1": "1 66925U 25286A   25347.58336806 -.01173135  42268-3 -28918-2 0  9999", "line2": "2 66925  53.1574  46.4495 0000822  63.9528 216.0435 15.95361591  2123"}}, "geometry": {"type": "Point", "coordinates": [-148.84371607997426, 14.953300348870693]}}, {"type": "Feature", "properties": {"norad_id": 66926, "name": "STARLINK-35942", "group": "last-30-days", "lat": 12.273804242467596, "lon": -146.68739709405335, "alt_km": 290.87630641703254, "timestamp": "2025-12-14T07:33:18.189599+00:00", "meta": {"OBJECT_NAME": "STARLINK-35942", "OBJECT_ID": "2025-286B", "EPOCH": "2025-12-13T14:00:03.000384", "MEAN_MOTION": 15.95536701, "ECCENTRICITY": 8.25e-05, "INCLINATION": 53.1574, "RA_OF_ASC_NODE": 46.4431, "ARG_OF_PERICENTER": 58.7569, "MEAN_ANOMALY": 224.2356, "EPHEMERIS_TYPE": 0, "CLASSIFICATION_TYPE": "U", "NORAD_CAT_ID": 66926, "ELEMENT_SET_NO": 999, "REV_AT_EPOCH": 212, "BSTAR": -0.0029373214, "MEAN_MOTION_DOT": -0.01202582, "MEAN_MOTION_DDOT": 0.00044294901}, "tle": {"line1": "1 66926U 25286B   25347.58336806 -.01202582  44295-3 -29373-2 0  9997", "line2": "2 66926  53.1574  46.4431 0000825  58.7569 224.2356 15.95536701  2124"}}, "geometry": {"type": "Point", "coordinates": [-146.68739709405335, 12.273804242467596]}}, {"type": "Feature", "properties": {"norad_id": 66927, "name": "STARLINK-35943", "group": "last-30-days", "lat": 11.083987709185822, "lon": -145.74859982338654, "alt_km": 290.8598246941692, "timestamp": "2025-12-14T07:33:18.189609+00:00", "meta": {"OBJECT_NAME": "STARLINK-35943", "OBJECT_ID": "2025-286C", "EPOCH": "2025-12-13T14:00:03.000384", "MEAN_MOTION": 15.95606474, "ECCENTRICITY": 9.11e-05, "INCLINATION": 53.1574, "RA_OF_ASC_NODE": 46.4406, "ARG_OF_PERICENTER": 60.7164, "MEAN_ANOMALY": 223.5914, "EPHEMERIS_TYPE": 0, "CLASSIFICATION_TYPE": "U", "NORAD_CAT_ID": 66927, "ELEMENT_SET_NO": 999, "REV_AT_EPOCH": 212, "BSTAR": -0.0029206932, "MEAN_MOTION_DOT": -0.01200335, "MEAN_MOTION_DDOT": 0.00044175822}, "tle": {"line1": "1 66927U 25286C   25347.58336806 -.01200335  44176-3 -29207-2 0  9996", "line2": "2 66927  53.1574  46.4406 0000911  60.7164 223.5914 15.95606474  2124"}}, "geometry": {"type": "Point", "coordinates": [-145.74859982338654, 11.083987709185822]}}, {"type": "Feature", "properties": {"norad_id": 66928, "name": "STARLINK-35944", "group": "last-30-days", "lat": 13.477836049911042, "lon": -147.64851873162814, "alt_km": 290.84383474721926, "timestamp": "2025-12-14T07:33:18.189624+00:00", "meta": {"OBJECT_NAME": "STARLINK-35944", "OBJECT_ID": "2025-286D", "EPOCH": "2025-12-13T14:00:03.000384", "MEAN_MOTION": 15.95456767, "ECCENTRICITY": 7.983e-05, "INCLINATION": 53.1574, "RA_OF_ASC_NODE": 46.4459, "ARG_OF_PERICENTER": 57.9357, "MEAN_ANOMALY": 223.7127, "EPHEMERIS_TYPE": 0, "CLASSIFICATION_TYPE": "U", "NORAD_CAT_ID": 66928, "ELEMENT_SET_NO": 999, "REV_AT_EPOCH": 212, "BSTAR": -0.0029114307, "MEAN_MOTION_DOT": -0.01187014, "MEAN_MOTION_DDOT": 0.00043223087}, "tle": {"line1": "1 66928U 25286D   25347.58336806 -.01187014  43223-3 -29114-2 0  9994", "line2": "2 66928  53.1574  46.4459 0000798  57.9357 223.7127 15.95456767  2124"}}, "geometry": {"type": "Point", "coordinates": [-147.64851873162814, 13.477836049911042]}}, {"type": "Feature", "properties": {"norad_id": 66929, "name": "STARLINK-36169", "group": "last-30-days", "lat": 9.787998473002698, "lon": -144.73764169784496, "alt_km": 290.8510235098347, "timestamp": "2025-12-14T07:33:18.189635+00:00", "meta": {"OBJECT_NAME": "STARLINK-36169", "OBJECT_ID": "2025-286E", "EPOCH": "2025-12-13T14:00:03.000384", "MEAN_MOTION": 15.95696279, "ECCENTRICITY": 0.00010254, "INCLINATION": 53.1573, "RA_OF_ASC_NODE": 46.4375, "ARG_OF_PERICENTER": 53.2502, "MEAN_ANOMALY": 232.4931, "EPHEMERIS_TYPE": 0, "CLASSIFICATION_TYPE": "U", "NORAD_CAT_ID": 66929, "ELEMENT_SET_NO": 999, "REV_AT_EPOCH": 212, "BSTAR": -0.0029589878, "MEAN_MOTION_DOT": -0.0122177, "MEAN_MOTION_DDOT": 0.00045662566}, "tle": {"line1": "1 66929U 25286E   25347.58336806 -.01221770  45663-3 -29590-2 0  9991", "line2": "2 66929  53.1573  46.4375 0001025  53.2502 232.4931 15.95696279  2120"}}, "geometry": {"type": "Point", "coordinates": [-144.73764169784496, 9.787998473002698]}}, {"type": "Feature", "properties": {"norad_id": 66930, "name": "STARLINK-36206", "group": "last-30-days", "lat": 8.62075729790881, "lon": -143.8359875665213, "alt_km": 290.9574497902313, "timestamp": "2025-12-14T07:33:18.189645+00:00", "meta": {"OBJECT_NAME": "STARLINK-36206", "OBJECT_ID": "2025-286F", "EPOCH": "2025-12-13T14:00:03.000384", "MEAN_MOTION": 15.95757023, "ECCENTRICITY": 9.477e-05, "INCLINATION": 53.1573, "RA_OF_ASC_NODE": 46.4346, "ARG_OF_PERICENTER": 54.9319, "MEAN_ANOMALY": 232.0956, "EPHEMERIS_TYPE": 0, "CLASSIFICATION_TYPE": "U", "NORAD_CAT_ID": 66930, "ELEMENT_SET_NO": 999, "REV_AT_EPOCH": 212, "BSTAR": -0.0029140516, "MEAN_MOTION_DOT": -0.01207343, "MEAN_MOTION_DDOT": 0.00044714167}, "tle": {"line1": "1 66930U 25286F   25347.58336806 -.01207343  44714-3 -29141-2 0  9991", "line2": "2 66930  53.1573  46.4346 0000947  54.9319 232.0956 15.95757023  2124"}}, "geometry": {"type": "Point", "coordinates": [-143.8359875665213, 8.62075729790881]}}, {"type": "Feature", "properties": {"norad_id": 66931, "name": "STARLINK-36130", "group": "last-30-days", "lat": 7.282397210023397, "lon": -142.810468804763, "alt_km": 291.00674662618894, "timestamp": "2025-12-14T07:33:18.189676+00:00", "meta": {"OBJECT_NAME": "STARLINK-36130", "OBJECT_ID": "2025-286G", "EPOCH": "2025-12-13T14:00:03.000384", "MEAN_MOTION": 15.95848844, "ECCENTRICITY": 9.375e-05, "INCLINATION": 53.1573, "RA_OF_ASC_NODE": 46.4317, "ARG_OF_PERICENTER": 54.8755, "MEAN_ANOMALY": 233.6351, "EPHEMERIS_TYPE": 0, "CLASSIFICATION_TYPE": "U", "NORAD_CAT_ID": 66931, "ELEMENT_SET_NO": 999, "REV_AT_EPOCH": 212, "BSTAR": -0.0029573772, "MEAN_MOTION_DOT": -0.01231135, "MEAN_MOTION_DDOT": 0.00046372832}, "tle": {"line1": "1 66931U 25286G   25347.58336806 -.01231135  46373-3 -29574-2 0  9991", "line2": "2 66931  53.1573  46.4317 0000937  54.8755 233.6351 15.95848844  2123"}}, "geometry": {"type": "Point", "coordinates": [-142.810468804763, 7.282397210023397]}}, {"type": "Feature", "properties": {"norad_id": 66932, "name": "STARLINK-36177", "group": "last-30-days", "lat": 5.953506397089303, "lon": -141.80029576232084, "alt_km": 290.8667651050155, "timestamp": "2025-12-14T07:33:18.189687+00:00", "meta": {"OBJECT_NAME": "STARLINK-36177", "OBJECT_ID": "2025-286H", "EPOCH": "2025-12-13T14:00:03.000384", "MEAN_MOTION": 15.95919694, "ECCENTRICITY": 9.515e-05, "INCLINATION": 53.1573, "RA_OF_ASC_NODE": 46.4286, "ARG_OF_PERICENTER": 61.1381, "MEAN_ANOMALY": 228.8161, "EPHEMERIS_TYPE": 0, "CLASSIFICATION_TYPE": "U", "NORAD_CAT_ID": 66932, "ELEMENT_SET_NO": 999, "REV_AT_EPOCH": 212, "BSTAR": -0.0028990739, "MEAN_MOTION_DOT": -0.01211745, "MEAN_MOTION_DDOT": 0.00045085744}, "tle": {"line1": "1 66932U 25286H   25347.58336806 -.01211745  45086-3 -28991-2 0  9999", "line2": "2 66932  53.1573  46.4286 0000951  61.1381 228.8161 15.95919694  2128"}}, "geometry": {"type": "Point", "coordinates": [-141.80029576232084, 5.953506397089303]}}, {"type": "Feature", "properties": {"norad_id": 66933, "name": "STARLINK-36157", "group": "last-30-days", "lat": 4.665412560093328, "lon": -140.82700092569036, "alt_km": 290.90299192635666, "timestamp": "2025-12-14T07:33:18.189697+00:00", "meta": {"OBJECT_NAME": "STARLINK-36157", "OBJECT_ID": "2025-286J", "EPOCH": "2025-12-13T14:00:03.000384", "MEAN_MOTION": 15.96004054, "ECCENTRICITY": 9.283e-05, "INCLINATION": 53.1573, "RA_OF_ASC_NODE": 46.4257, "ARG_OF_PERICENTER": 59.3664, "MEAN_ANOMALY": 232.0037, "EPHEMERIS_TYPE": 0, "CLASSIFICATION_TYPE": "U", "NORAD_CAT_ID": 66933, "ELEMENT_SET_NO": 999, "REV_AT_EPOCH": 212, "BSTAR": -0.002917956, "MEAN_MOTION_DOT": -0.01225087, "MEAN_MOTION_DDOT": 0.0004603216}, "tle": {"line1": "1 66933U 25286J   25347.58336806 -.01225087  46032-3 -29180-2 0  9997", "line2": "2 66933  53.1573  46.4257 0000928  59.3664 232.0037 15.96004054  2129"}}, "geometry": {"type": "Point", "coordinates": [-140.82700092569036, 4.665412560093328]}}, {"type": "Feature", "properties": {"norad_id": 66934, "name": "STARLINK-36153", "group": "last-30-days", "lat": 3.3665253050758794, "lon": -139.85056548475282, "alt_km": 290.9672127428166, "timestamp": "2025-12-14T07:33:18.189707+00:00", "meta": {"OBJECT_NAME": "STARLINK-36153", "OBJECT_ID": "2025-286K", "EPOCH": "2025-12-13T14:00:03.000384", "MEAN_MOTION": 15.96090223, "ECCENTRICITY": 8.819e-05, "INCLINATION": 53.1573, "RA_OF_ASC_NODE": 46.4224, "ARG_OF_PERICENTER": 54.9386, "MEAN_ANOMALY": 237.861, "EPHEMERIS_TYPE": 0, "CLASSIFICATION_TYPE": "U", "NORAD_CAT_ID": 66934, "ELEMENT_SET_NO": 999, "REV_AT_EPOCH": 212, "BSTAR": -0.0029440763, "MEAN_MOTION_DOT": -0.01241664, "MEAN_MOTION_DDOT": 0.00047213037}, "tle": {"line1": "1 66934U 25286K   25347.58336806 -.01241664  47213-3 -29441-2 0  9999", "line2": "2 66934  53.1573  46.4224 0000881  54.9386 237.8610 15.96090223  2127"}}, "geometry": {"type": "Point", "coordinates": [-139.85056548475282, 3.3665253050758794]}}]}